[{"OBJECT_NAME":"EDISON-1","OBJECT_ID":"2025-009B","EPOCH":"2026-03-09T19:16:13.822464","MEAN_MOTION":15.29042904,"ECCENTRICITY":0.00043285,"INCLINATION":97.4042,"RA_OF_ASC_NODE":151.6286,"ARG_OF_PERICENTER":306.4185,"MEAN_ANOMALY":53.6655,"EPHEMERIS_TYPE":0,"CLASSIFICATION_TYPE":"U","NORAD_CAT_ID":62610,"ELEMENT_SET_NO":999,"REV_AT_EPOCH":6375,"BSTAR":0.00052814963,"MEAN_MOTION_DOT":0.00014835,"MEAN_MOTION_DDOT":0},{"OBJECT_NAME":"STARLINK-34840","OBJECT_ID":"2025-257AC","EPOCH":"2026-03-09T16:23:49.176384","MEAN_MOTION":15.30192885,"ECCENTRICITY":4.87e-5,"INCLINATION":53.1594,"RA_OF_ASC_NODE":216.9578,"ARG_OF_PERICENTER":96.2852,"MEAN_ANOMALY":263.8205,"EPHEMERIS_TYPE":0,"CLASSIFICATION_TYPE":"U","NORAD_CAT_ID":66406,"ELEMENT_SET_NO":999,"REV_AT_EPOCH":1967,"BSTAR":0.00060525505,"MEAN_MOTION_DOT":0.00017606,"MEAN_MOTION_DDOT":0}]
